STARLETTE               
1 07646U 75010A   26115.82305314 -.00000124  00000+0  13166-4 0  9995
2 07646  49.8254 311.2848 0205661 250.0466 107.8170 13.82349655587298
LAGEOS 1                
1 08820U 76039A   26115.85389512  .00000005  00000+0  00000+0 0  9992
2 08820 109.8066 161.4287 0044671 313.4889 231.6959  6.38664737909796
AJISAI (EGS)            
1 16908U 86061A   26115.87025992 -.00000079  00000+0  13314-3 0  9993
2 16908  50.0099 308.2702 0011425  47.9987  86.7629 12.44515983473877
COSMOS 1989 (ETALON 1)  
1 19751U 89001C   26115.45581147  .00000012  00000+0  00000+0 0  9992
2 19751  64.9169  73.9978 0023357 217.6733 323.3879  2.13155928290240
COSMOS 2024 (ETALON 2)  
1 20026U 89039C   26115.47836080 -.00000021  00000+0  00000+0 0  9992
2 20026  64.9670 312.3514 0020536 212.8483 133.9818  2.13204542287370
LAGEOS 2                
1 22195U 92070B   26111.22194309 -.00000009  00000+0  00000+0 0  9996
2 22195  52.6637 302.6665 0137668 162.3866 358.4562  6.47293633791734
STELLA                  
1 22824U 93061B   26115.84789740 -.00000044  00000+0  23829-6 0  9997
2 22824  98.7758 179.9023 0006995  37.5916 105.6339 14.27468906697304
LARETS                  
1 27944U 03042F   26115.48380532  .00000052  00000+0  19566-4 0  9990
2 27944  98.4099 276.5991 0011901 195.1769 164.9077 14.63859218205655
LARES                   
1 38077U 12006A   26115.84744911 -.00000039  00000+0 -47646-5 0  9992
2 38077  69.4930  21.6469 0006362  91.8155 268.3600 12.54931948650509
LARES-2                 
1 53105U 22080A   26114.95312861 -.00000010  00000+0  00000+0 0  9995
2 53105  70.1721 323.5864 0005358 346.5295  13.5246  6.38965121 88266
